{
    "links": {
        "self": "http://www.neowsapp.com/rest/v1/neo/3799746?api_key=iIulBulltgU6a56xZRHN4H3l9WmuAYTsLGpBGhQ2"
    },
    "id": "3799746",
    "neo_reference_id": "3799746",
    "name": "(2018 DS1)",
    "designation": "2018 DS1",
    "nasa_jpl_url": "http://ssd.jpl.nasa.gov/sbdb.cgi?sstr=3799746",
    "absolute_magnitude_h": 24.9,
    "estimated_diameter": {
        "kilometers": {
            "estimated_diameter_min": 0.0278326768,
            "estimated_diameter_max": 0.0622357573
        },
        "meters": {
            "estimated_diameter_min": 27.8326768072,
            "estimated_diameter_max": 62.2357573367
        },
        "miles": {
            "estimated_diameter_min": 0.0172944182,
            "estimated_diameter_max": 0.0386714948
        },
        "feet": {
            "estimated_diameter_min": 91.3145593761,
            "estimated_diameter_max": 204.1855621004
        }
    },
    "is_potentially_hazardous_asteroid": false,
    "close_approach_data": [
        {
            "close_approach_date": "2018-03-03",
            "close_approach_date_full": "2018-Mar-03 05:27",
            "epoch_date_close_approach": 1520054820000,
            "relative_velocity": {
                "kilometers_per_second": "16.2559260257",
                "kilometers_per_hour": "58521.3336924534",
                "miles_per_hour": "36362.8809268469"
            },
            "miss_distance": {
                "astronomical": "0.0418776211",
                "lunar": "16.2903946079",
                "kilometers": "6264802.917227057",
                "miles": "3892768.0227131066"
            },
            "orbiting_body": "Earth"
        }
    ],
    "orbital_data": {
        "orbit_id": "2",
        "orbit_determination_date": "2018-02-28 06:22:23",
        "first_observation_date": "2018-02-23",
        "last_observation_date": "2018-02-27",
        "data_arc_in_days": 4,
        "observations_used": 25,
        "orbit_uncertainty": "8",
        "minimum_orbit_intersection": ".0015294",
        "jupiter_tisserand_invariant": "4.463",
        "epoch_osculation": "2458174.5",
        "eccentricity": ".5046690862418179",
        "semi_major_axis": "1.464657942523383",
        "inclination": "6.652955301596566",
        "ascending_node_longitude": "344.1807390098497",
        "orbital_period": "647.4447944179201",
        "perihelion_distance": ".7254903570132861",
        "perihelion_argument": "259.2978819755206",
        "aphelion_distance": "2.203825528033479",
        "perihelion_time": "2458231.315047343095",
        "mean_anomaly": "328.4090176956281",
        "mean_motion": ".556031963039652",
        "equinox": "J2000",
        "orbit_class": {
            "orbit_class_type": "APO",
            "orbit_class_description": "Near-Earth asteroid orbits which cross the Earth’s orbit similar to that of 1862 Apollo",
            "orbit_class_range": "a (semi-major axis) > 1.0 AU; q (perihelion) < 1.017 AU"
        }
    },
    "is_sentry_object": false
}